ENDUROSAT ONE           
1 43551U 98067NZ  20241.09660300  .00106784  15325-4  34778-3 0  9999
2 43551  51.6290 264.6519 0006701  30.2802 329.8590 15.90562210121747
EQUISAT                 
1 43552U 98067PA  20240.62184587  .00032368  00000-0  18771-3 0  9997
2 43552  51.6304 281.9989 0005900  18.3857 341.7356 15.78217442121433
AEROCUBE 12A            
1 43556U 18046C   20240.83332743  .00000921  00000-0  43577-4 0  9995
2 43556  51.6420 122.5396 0008064 187.1632 172.9235 15.29978867118301
AEROCUBE 12B            
1 43557U 18046D   20241.03849000  .00000549  00000-0  31202-4 0  9996
2 43557  51.6421 122.3946 0008099 187.2577 172.8287 15.29677466118272
UITMSAT-1               
1 43589U 98067PD  20240.54553946  .00037746  00000-0  17680-3 0  9990
2 43589  51.6329 278.2815 0005754  30.9750 329.1591 15.82815759117218
MAYA-1                  
1 43590U 98067PE  20240.28566006  .00058131  00000-0  26973-3 0  9990
2 43590  51.6275 279.5009 0005795  25.2683 334.8602 15.82823518117102
BHUTAN-1                
1 43591U 98067PF  20241.13320040  .00058004  00000-0  26494-3 0  9999
2 43591  51.6330 274.7879 0006086  32.2557 327.8817 15.83157244117241
SIRIUSSAT-1             
1 43595U 98067PG  20240.82539014  .00042435  00000-0  23370-3 0  9992
2 43595  51.6272 283.1677 0004168  16.2907 343.8228 15.79243907116284
SIRIUSSAT-2             
1 43596U 98067PH  20241.14514495  .00040304  00000-0  22298-3 0  9996
2 43596  51.6266 282.3770 0004217  15.8878 344.2254 15.79166956116327
TANUSHA-3               
1 43597U 98067PJ  20240.96118853  .00560026  17098-3  60492-3 0  9998
2 43597  51.6179 260.3736 0006690  40.8720 319.2794 16.09299743116595
SURFSAT                 
1 43614U 18070B   20240.78498518  .00002872  00000-0  73073-4 0  9995
2 43614  93.0254 184.0955 0017836  66.1924 294.1198 15.39496690109453
CP7 (DAVE)              
1 43615U 18070C   20240.82350601  .00002736  00000-0  69998-4 0  9991
2 43615  93.0256 184.0975 0017984  65.6425 294.6704 15.39334441109455
ELFIN-B                 
1 43616U 18070D   20240.79854237  .00004076  00000-0  99190-4 0  9998
2 43616  93.0215 184.0541 0018413  66.5987 293.7202 15.40817596109509
ELFIN-A                 
1 43617U 18070E   20241.08232322  .00004408  00000-0  10650-3 0  9999
2 43617  93.0267 184.7441 0017722  63.2300 297.0766 15.41043559109556
CUBEBEL-1 (BSUSAT-1)    
1 43666U 18083E   20241.20005794  .00000845  00000-0  44337-4 0  9993
2 43666  97.4850 266.9468 0016467 108.4803 317.0886 15.18377421101508
CICERO 10               
1 43690U 18088A   20240.97538742  .00000771  00000-0  33512-4 0  9993
2 43690  85.0381  31.1809 0016651  53.3607 306.9162 15.20322957 99601
IRVINE01                
1 43693U 18088D   20240.71502390  .00002126  00000-0  87947-4 0  9995
2 43693  85.0356  29.8216 0018791  35.3661 324.8824 15.23145331 99694
PROXIMA I               
1 43694U 18088E   20240.81981398  .00000839  00000-0  34711-4 0  9996
2 43694  85.0326  29.6358 0020082  27.3442 332.8852 15.22076417 99700
PROXIMA II              
1 43696U 18088G   20240.88369923  .00000844  00000-0  34921-4 0  9998
2 43696  85.0328  29.5978 0020107  27.0527 333.1758 15.22077969 99702
FACSAT-1                
1 43721U 18096C   20241.14857535  .00001132  00000-0  44884-4 0  9997
2 43721  97.4165 314.3266 0016303 225.4122 134.5788 15.27388148 97332
CENTAURI-2              
1 43722U 18096D   20240.75559031  .00001612  00000-0  61663-4 0  9991
2 43722  97.4179 314.2828 0016286 226.4292 133.5596 15.27963603 97285
INNOSAT-2               
1 43738U 18096V   20241.11770108  .00002463  00000-0  85290-4 0  9996
2 43738  97.4201 316.9172 0021934 232.1563 127.7693 15.30627886 97490
SIRION PATHFINDER-2     
1 43759U 18099B   20240.84595773 -.00000295  00000-0 -21564-4 0  9991
2 43759  97.7008 311.2723 0013081 308.6456  51.3593 14.95305077 94601
CORVUS-BC 4             
1 43767U 18099K   20240.74668578  .00000478  00000-0  49216-4 0  9998
2 43767  97.6989 310.5078 0010529 314.6198  45.4163 14.94749791 94551
MOVE-II                 
1 43780U 18099Y   20240.78557107  .00000010  00000-0  61239-5 0  9994
2 43780  97.7017 311.1674 0012476 321.0351  38.9969 14.95459372 94571
SPACEBEE-7              
1 43816U 18099BL  20240.77804815 -.00000177  00000-0 -10690-4 0  9994
2 43816  97.7033 311.5948 0012117 304.2309  55.7763 14.95744722 94154
SPACEBEE-5              
1 43817U 18099BM  20240.76756828  .00000654  00000-0  62723-4 0  9996
2 43817  97.7093 312.1495 0011564 304.2405  55.7720 14.96425882 94176
SPACEBEE-6              
1 43818U 18099BN  20240.73192982  .00000449  00000-0  45161-4 0  9998
2 43818  97.7045 311.7246 0011941 303.2183  56.7893 14.95951933 94301
SHIELDS 1               
1 43850U 18104B   20240.76285599  .00000398  00000-0  15837-4 0  9991
2 43850  85.0299 128.2260 0015493 159.7967 200.3891 15.21439310 94311
STF-1                   
1 43852U 18104D   20240.77922765  .00000888  00000-0  37698-4 0  9990
2 43852  85.0341 128.8010 0014515 173.6645 186.4783 15.21402960 94294
ZACUBE-2                
1 43907U 18111AH  20241.05726628  .00000420  00000-0  19764-4 0  9997
2 43907  97.2574 138.6382 0019789 249.3389 110.5727 15.24651043 92928
LUME 1                  
1 43908U 18111AJ  20240.76220530  .00000783  00000-0  33911-4 0  9998
2 43908  97.2576 138.5743 0019479 249.8423 110.0720 15.25159061 92899
AOBA VELOX-IV           
1 43940U 19003J   20240.69767258  .00001523  00000-0  62990-4 0  9992
2 43940  97.2222 289.5164 0022751 335.3114  24.7033 15.25232323 89507
CATSAT-2                
1 44029U 98067PV  20240.64754496  .00018962  00000-0  17617-3 0  9993
2 44029  51.6387 314.6524 0004480   5.2551 354.8492 15.67454117 89687
DELPHINI                
1 44030U 98067PW  20240.67686311  .00020426  00000-0  17996-3 0  9996
2 44030  51.6338 312.4448 0004613   2.1978 357.9038 15.68707811 89686
UNITE                   
1 44031U 98067PX  20240.45777316  .00009677  00000-0  11236-3 0  9995
2 44031  51.6382 323.8485 0003303 354.7727   5.3233 15.62495206 89515
CATSAT-1                
1 44033U 98067PZ  20240.64713680  .00019705  00000-0  18265-3 0  9994
2 44033  51.6389 314.6576 0004335   5.3748 354.7294 15.67482264 89592
RAAVANA-1               
1 44329U 98067QE  20240.68972157  .00010949  00000-0  14338-3 0  9990
2 44329  51.6403 336.7184 0005201 276.3243  83.7158 15.59149064 68112
UGUISU                  
1 44330U 98067QF  20240.51417339  .00009974  00000-0  13172-3 0  9991
2 44330  51.6379 337.7742 0005150 274.5770  85.4634 15.59043333 68069
NEPALISAT-1             
1 44331U 98067QG  20240.68136450  .00010347  00000-0  13579-3 0  9999
2 44331  51.6379 336.6435 0005217 279.3025  80.7378 15.59162144 68107
SPOOQY-1                
1 44332U 98067QH  20240.68960420  .00010346  00000-0  13641-3 0  9991
2 44332  51.6391 336.7026 0004348 283.0581  76.9927 15.59041794 68061
SPACEBEE-9              
1 44370U 19037F   20240.84188387  .00007853  00000-0  17353-3 0  9998
2 44370  45.0067  76.3293 0014231 246.2573 113.6824 15.44346685 65633
SPACEBEE-8              
1 44371U 19037G   20240.76416616  .00017380  00000-0  31312-3 0  9996
2 44371  45.0070  68.1643 0013067 249.7776 110.1711 15.49532789 65729
IOD-1 GEMS              
1 44385U 98067QK  20240.55251283  .00016413  00000-0  18829-3 0  9999
2 44385  51.6401 334.3496 0001369 257.7002 102.3839 15.62223768 65602
MOVE-IIB                
1 44398U 19038N   20240.87563815  .00000910  00000-0  55857-4 0  9994
2 44398  97.5418 201.2247 0023555 240.0554 119.8337 15.12457859 63370
SONATE                  
1 44400U 19038Q   20240.86279115  .00000341  00000-0  23593-4 0  9994
2 44400  97.5461 201.2214 0023717 238.6133 121.2777 15.12016545 63369
LUCKY-7                 
1 44406U 19038W   20240.86572293  .00000427  00000-0  28384-4 0  9991
2 44406  97.5455 201.3522 0023131 238.0460 121.8521 15.12293428 63368
BEESAT 9                
1 44412U 19038AC  20240.86008364  .00000641  00000-0  40558-4 0  9996
2 44412  97.5445 201.3288 0021085 244.0752 115.8305 15.12397447 63066
JAISAT-1                
1 44419U 19038F   20240.46072434  .00000651  00000-0  40596-4 0  9991
2 44419  97.5446 201.2523 0019949 244.3954 115.5215 15.12880684 63335
SWIATOWID               
1 44426U 98067QL  20241.10639402  .00019961  00000-0  21602-3 0  9994
2 44426  51.6422 330.3690 0001576 251.0028 178.3518 15.63571411 65719
KRAKSAT                 
1 44427U 98067QM  20241.13110854  .00007058  00000-0  10302-3 0  9992
2 44427  51.6438 338.8066 0002300 215.2408 214.7144 15.56876274 65646
VCC A                   
1 44428U 98067QN  20240.64844325  .00009884  00000-0  13349-3 0  9998
2 44428  51.6407 338.7399 0001845 252.3778 107.7013 15.58458856 65602
ENTRYSAT                
1 44429U 98067QP  20240.50323470  .00012772  00000-0  16266-3 0  9998
2 44429  51.6389 337.7324 0001563 248.4488 111.6339 15.59721127 65600
VCC C                   
1 44430U 98067QQ  20240.48036627  .00015986  00000-0  19062-3 0  9999
2 44430  51.6389 336.0878 0001634 285.6900  74.3914 15.61238521 64448
VCC B                   
1 44431U 98067QR  20240.58188022  .00009999  00000-0  13468-3 0  9999
2 44431  51.6392 339.0228 0001942 250.7738 109.3044 15.58513934 65533
ATL-1                   
1 44830U 19084G   20240.89384536  .00125803  75704-5  44328-3 0  9996
2 44830  96.9615 111.1352 0014482 319.8279  40.1923 15.88986641 41751
SMOG-P                  
1 44832U 19084J   20241.10378293  .00178786  13882-4  51284-3 0  9991
2 44832  96.9588 111.7626 0011318 314.4553  45.5796 15.93060656 41812
DUCHIFAT-3              
1 44854U 19089C   20240.76417033  .00000222  00000-0  24347-4 0  9991
2 44854  36.9679  36.9053 0009804 284.3432  75.6218 14.99109421 39001
EYESAT-NANO             
1 44877U 19092E   20241.04560794  .00000844  00000-0  46100-4 0  9996
2 44877  97.4571  63.1758 0014922 126.2201 234.0414 15.16943112 38447
